<?xml version="1.0" encoding="UTF-8"?>
<kml xmlns="http://www.opengis.net/kml/2.2">
 <Document>
  <name>Fiesta Inn Mexicali — área instalable (Newman)</name>
  <Style id="usable"><LineStyle><color>ff71cc2e</color><width>3</width></LineStyle>
   <PolyStyle><color>5971cc2e</color></PolyStyle></Style>
  <Style id="obstacle"><LineStyle><color>ff3c4ce7</color><width>2</width></LineStyle>
   <PolyStyle><color>6e3c4ce7</color></PolyStyle></Style>
  <Style id="obstaclePt"><IconStyle><color>ff3c4ce7</color></IconStyle></Style>
  <Placemark><name>Ala Oriente — franja sur — 128 m2, ~30 mod / 21.4 kWp</name>
   <styleUrl>#usable</styleUrl>
   <Polygon><outerBoundaryIs><LinearRing><coordinates>-115.4692134,32.6457011,0 -115.4688406,32.6455791,0 -115.4688272,32.6455340,0 -115.4692027,32.6456717,0 -115.4692134,32.6457011,0</coordinates></LinearRing></outerBoundaryIs></Polygon>
  </Placemark>
  <Placemark><name>Ala Oriente — franja norte — 115 m2, ~27 mod / 19.3 kWp</name>
   <styleUrl>#usable</styleUrl>
   <Polygon><outerBoundaryIs><LinearRing><coordinates>-115.4691947,32.6457553,0 -115.4688272,32.6456356,0 -115.4688594,32.6456153,0 -115.4692081,32.6457282,0 -115.4691947,32.6457553,0</coordinates></LinearRing></outerBoundaryIs></Polygon>
  </Placemark>
  <Placemark><name>Ala Surponiente — franja poniente — 124 m2, ~30 mod / 21.4 kWp</name>
   <styleUrl>#usable</styleUrl>
   <Polygon><outerBoundaryIs><LinearRing><coordinates>-115.4694146,32.6456650,0 -115.4693717,32.6456288,0 -115.4695192,32.6453646,0 -115.4695460,32.6453578,0 -115.4694146,32.6456650,0</coordinates></LinearRing></outerBoundaryIs></Polygon>
  </Placemark>
  <Placemark><name>Ala Surponiente — franja oriente — 133 m2, ~32 mod / 22.9 kWp</name>
   <styleUrl>#usable</styleUrl>
   <Polygon><outerBoundaryIs><LinearRing><coordinates>-115.4693314,32.6456198,0 -115.4692993,32.6456062,0 -115.4694226,32.6453488,0 -115.4694790,32.6453533,0 -115.4693314,32.6456198,0</coordinates></LinearRing></outerBoundaryIs></Polygon>
  </Placemark>
  <Placemark><name>Obstáculo: Fila central HVAC/ductos — ala oriente</name><styleUrl>#obstacle</styleUrl>
   <Polygon><outerBoundaryIs><LinearRing><coordinates>-115.4692081,32.6457259,0 -115.4688594,32.6456130,0 -115.4688674,32.6455904,0 -115.4692161,32.6457056,0 -115.4692081,32.6457259,0</coordinates></LinearRing></outerBoundaryIs></Polygon>
  </Placemark>
  <Placemark><name>Obstáculo: Deck mecánico oriente (chillers/equipos)</name><styleUrl>#obstacle</styleUrl>
   <Polygon><outerBoundaryIs><LinearRing><coordinates>-115.4688191,32.6456243,0 -115.4686475,32.6455656,0 -115.4686877,32.6454617,0 -115.4688594,32.6455204,0 -115.4688191,32.6456243,0</coordinates></LinearRing></outerBoundaryIs></Polygon>
  </Placemark>
  <Placemark><name>Obstáculo: Fila central HVAC/ductos — ala surponiente</name><styleUrl>#obstacle</styleUrl>
   <Polygon><outerBoundaryIs><LinearRing><coordinates>-115.4693636,32.6456333,0 -115.4693368,32.6456243,0 -115.4694870,32.6453510,0 -115.4695138,32.6453623,0 -115.4693636,32.6456333,0</coordinates></LinearRing></outerBoundaryIs></Polygon>
  </Placemark>
  <Placemark><name>Obstáculo: Núcleo elevadores/escaleras (vértice)</name><styleUrl>#obstacle</styleUrl>
   <Polygon><outerBoundaryIs><LinearRing><coordinates>-115.4693395,32.6456740,0 -115.4692161,32.6456288,0 -115.4692322,32.6455972,0 -115.4693556,32.6456424,0 -115.4693395,32.6456740,0</coordinates></LinearRing></outerBoundaryIs></Polygon>
  </Placemark>
  <Placemark><name>Obstáculo: Grúa torre — obra en construcción (norte)</name><styleUrl>#obstaclePt</styleUrl>
   <Point><coordinates>-115.4695863,32.6459812,0</coordinates></Point></Placemark>
 </Document>
</kml>
