{
 "type": "FeatureCollection",
 "features": [
  {
   "type": "Feature",
   "properties": {
    "name": "Ala Oriente \u2014 franja sur",
    "area_m2": 100.0,
    "modules": 24,
    "kwp": 17.2,
    "kind": "usable"
   },
   "geometry": {
    "type": "Polygon",
    "coordinates": [
     [
      [
       -115.46921074390411,
       32.645696582953306
      ],
      [
       -115.4688486456871,
       32.64557236645875
      ],
      [
       -115.468829870224,
       32.645533972234624
      ],
      [
       -115.46920537948608,
       32.64567399814895
      ],
      [
       -115.46921074390411,
       32.645696582953306
      ]
     ]
    ]
   }
  },
  {
   "type": "Feature",
   "properties": {
    "name": "Ala Oriente \u2014 franja norte",
    "area_m2": 83.1,
    "modules": 20,
    "kwp": 14.3,
    "kind": "usable"
   },
   "geometry": {
    "type": "Polygon",
    "coordinates": [
     [
      [
       -115.46920001506805,
       32.645750786460496
      ],
      [
       -115.46885132789612,
       32.64563334548673
      ],
      [
       -115.46885937452316,
       32.64561527763092
      ],
      [
       -115.4692080616951,
       32.645728201669826
      ],
      [
       -115.46920001506805,
       32.645750786460496
      ]
     ]
    ]
   }
  },
  {
   "type": "Feature",
   "properties": {
    "name": "Ala Surponiente \u2014 franja poniente",
    "area_m2": 121.0,
    "modules": 29,
    "kwp": 20.7,
    "kind": "usable"
   },
   "geometry": {
    "type": "Polygon",
    "coordinates": [
     [
      [
       -115.4694253206253,
       32.64564689637619
      ],
      [
       -115.46938240528107,
       32.64563108700495
      ],
      [
       -115.46952992677689,
       32.64536684424344
      ],
      [
       -115.46955943107605,
       32.645380395173284
      ],
      [
       -115.4694253206253,
       32.64564689637619
      ]
     ]
    ]
   }
  },
  {
   "type": "Feature",
   "properties": {
    "name": "Ala Surponiente \u2014 franja oriente",
    "area_m2": 104.7,
    "modules": 25,
    "kwp": 17.9,
    "kind": "usable"
   },
   "geometry": {
    "type": "Polygon",
    "coordinates": [
     [
      [
       -115.46933144330978,
       32.64561527763092
      ],
      [
       -115.46930193901062,
       32.645603985219196
      ],
      [
       -115.46944409608841,
       32.64534425935581
      ],
      [
       -115.46948164701462,
       32.6453510348227
      ],
      [
       -115.46933144330978,
       32.64561527763092
      ]
     ]
    ]
   }
  },
  {
   "type": "Feature",
   "properties": {
    "name": "Fila central HVAC/ductos \u2014 ala oriente",
    "kind": "obstacle"
   },
   "geometry": {
    "type": "Polygon",
    "coordinates": [
     [
      [
       -115.4692080616951,
       32.64572594319045
      ],
      [
       -115.46885937452316,
       32.64561301914869
      ],
      [
       -115.46886742115021,
       32.64559043432323
      ],
      [
       -115.46921610832214,
       32.64570561687345
      ],
      [
       -115.4692080616951,
       32.64572594319045
      ]
     ]
    ]
   }
  },
  {
   "type": "Feature",
   "properties": {
    "name": "Deck mec\u00e1nico oriente (chillers/equipos)",
    "kind": "obstacle"
   },
   "geometry": {
    "type": "Polygon",
    "coordinates": [
     [
      [
       -115.46881914138794,
       32.64562431155928
      ],
      [
       -115.46864748001099,
       32.64556559100864
      ],
      [
       -115.46868771314621,
       32.64546170070919
      ],
      [
       -115.46885937452316,
       32.64552042132805
      ],
      [
       -115.46881914138794,
       32.64562431155928
      ]
     ]
    ]
   }
  },
  {
   "type": "Feature",
   "properties": {
    "name": "Fila central HVAC/ductos \u2014 ala surponiente",
    "kind": "obstacle"
   },
   "geometry": {
    "type": "Polygon",
    "coordinates": [
     [
      [
       -115.46936362981796,
       32.64563334548673
      ],
      [
       -115.46933680772781,
       32.64562431155928
      ],
      [
       -115.46948701143265,
       32.6453510348227
      ],
      [
       -115.4695138335228,
       32.64536232726637
      ],
      [
       -115.46936362981796,
       32.64563334548673
      ]
     ]
    ]
   }
  },
  {
   "type": "Feature",
   "properties": {
    "name": "N\u00facleo elevadores/escaleras (v\u00e9rtice)",
    "kind": "obstacle"
   },
   "geometry": {
    "type": "Polygon",
    "coordinates": [
     [
      [
       -115.46933948993683,
       32.64567399814895
      ],
      [
       -115.46921610832214,
       32.64562882852312
      ],
      [
       -115.46923220157623,
       32.645597209771466
      ],
      [
       -115.46935558319092,
       32.64564237941327
      ],
      [
       -115.46933948993683,
       32.64567399814895
      ]
     ]
    ]
   }
  },
  {
   "type": "Feature",
   "properties": {
    "name": "Gr\u00faa torre \u2014 obra en construcci\u00f3n (norte)",
    "kind": "obstacle"
   },
   "geometry": {
    "type": "Point",
    "coordinates": [
     -115.4695862531662,
     32.64598115099956
    ]
   }
  }
 ]
}